STARLETTE               
1 07646U 75010A   26061.82133810 -.00000147  00000+0 -90258-6 0  9990
2 07646  49.8226 164.4418 0205549  71.6547 290.6584 13.82349049579827
LAGEOS 1                
1 08820U 76039A   26061.43709549 -.00000003  00000+0  00000+0 0  9991
2 08820 109.8189 142.7985 0044658 325.1413  36.9970  6.38664864906323
AJISAI (EGS)            
1 16908U 86061A   26061.73969318 -.00000078  00000+0  13300-3 0  9991
2 16908  50.0080 114.7196 0011247 269.1149 209.0950 12.44515513467132
COSMOS 1989 (ETALON 1)  
1 19751U 89001C   26061.70529373  .00000027  00000+0  00000+0 0  9999
2 19751  64.8830  75.8360 0023402 217.5793 117.5442  2.13156013289092
COSMOS 2024 (ETALON 2)  
1 20026U 89039C   26061.32266899 -.00000040  00000+0  00000+0 0  9992
2 20026  64.9989 314.2194 0020465 213.4282 327.1605  2.13204503286224
LAGEOS 2                
1 22195U 92070B   26061.17392850 -.00000009  00000+0  00000+0 0  9995
2 22195  52.6801 334.2909 0137783 140.5395  13.7441  6.47293311788491
STELLA                  
1 22824U 93061B   26061.80091389 -.00000022  00000+0  92404-5 0  9998
2 22824  98.7857 125.6127 0006360 176.9856 302.2494 14.27467263689598
LARETS                  
1 27944U 03042F   26061.75811986  .00000084  00000+0  25715-4 0  9990
2 27944  98.4003 221.8033 0012513  14.0956 346.0592 14.63846319197795
LARES                   
1 38077U 12006A   26061.64991820 -.00000035  00000+0  18940-4 0  9992
2 38077  69.4884 114.2245 0007623 157.8629 202.2728 12.54932186643705
LARES-2                 
1 53105U 22080A   26051.71998157 -.00000019  00000+0  00000+0 0  9996
2 53105  70.1780 345.2672 0005158   0.9590 359.1035  6.38965205 84226
